{
    "links": {
        "self": "http://www.neowsapp.com/rest/v1/neo/54051064?api_key=iIulBulltgU6a56xZRHN4H3l9WmuAYTsLGpBGhQ2"
    },
    "id": "54051064",
    "neo_reference_id": "54051064",
    "name": "(2020 PE3)",
    "designation": "2020 PE3",
    "nasa_jpl_url": "http://ssd.jpl.nasa.gov/sbdb.cgi?sstr=54051064",
    "absolute_magnitude_h": 24.228,
    "estimated_diameter": {
        "kilometers": {
            "estimated_diameter_min": 0.0379275663,
            "estimated_diameter_max": 0.0848086165
        },
        "meters": {
            "estimated_diameter_min": 37.9275663354,
            "estimated_diameter_max": 84.808616547
        },
        "miles": {
            "estimated_diameter_min": 0.0235670898,
            "estimated_diameter_max": 0.0526976149
        },
        "feet": {
            "estimated_diameter_min": 124.4342767358,
            "estimated_diameter_max": 278.2435015122
        }
    },
    "is_potentially_hazardous_asteroid": false,
    "close_approach_data": [
        {
            "close_approach_date": "2013-08-22",
            "close_approach_date_full": "2013-Aug-22 05:22",
            "epoch_date_close_approach": 1377148920000,
            "relative_velocity": {
                "kilometers_per_second": "16.1489601426",
                "kilometers_per_hour": "58136.2565135335",
                "miles_per_hour": "36123.6089430898"
            },
            "miss_distance": {
                "astronomical": "0.431996938",
                "lunar": "168.046808882",
                "kilometers": "64625821.77132206",
                "miles": "40156623.561322028"
            },
            "orbiting_body": "Earth"
        },
        {
            "close_approach_date": "2017-02-17",
            "close_approach_date_full": "2017-Feb-17 03:24",
            "epoch_date_close_approach": 1487301840000,
            "relative_velocity": {
                "kilometers_per_second": "13.7974608695",
                "kilometers_per_hour": "49670.8591300412",
                "miles_per_hour": "30863.5402188859"
            },
            "miss_distance": {
                "astronomical": "0.4595082547",
                "lunar": "178.7487110783",
                "kilometers": "68741456.150537489",
                "miles": "42713960.1792917882"
            },
            "orbiting_body": "Earth"
        },
        {
            "close_approach_date": "2020-08-13",
            "close_approach_date_full": "2020-Aug-13 16:03",
            "epoch_date_close_approach": 1597334580000,
            "relative_velocity": {
                "kilometers_per_second": "13.8923023106",
                "kilometers_per_hour": "50012.2883181816",
                "miles_per_hour": "31075.6910385946"
            },
            "miss_distance": {
                "astronomical": "0.0602466567",
                "lunar": "23.4359494563",
                "kilometers": "9012771.516941229",
                "miles": "5600276.5323538002"
            },
            "orbiting_body": "Earth"
        },
        {
            "close_approach_date": "2021-01-02",
            "close_approach_date_full": "2021-Jan-02 20:30",
            "epoch_date_close_approach": 1609619400000,
            "relative_velocity": {
                "kilometers_per_second": "13.5483822144",
                "kilometers_per_hour": "48774.1759717144",
                "miles_per_hour": "30306.3761753133"
            },
            "miss_distance": {
                "astronomical": "0.4646162142",
                "lunar": "180.7357073238",
                "kilometers": "69505596.011783754",
                "miles": "43188774.6716296452"
            },
            "orbiting_body": "Earth"
        },
        {
            "close_approach_date": "2027-07-31",
            "close_approach_date_full": "2027-Jul-31 12:34",
            "epoch_date_close_approach": 1817037240000,
            "relative_velocity": {
                "kilometers_per_second": "20.0426034958",
                "kilometers_per_hour": "72153.3725847742",
                "miles_per_hour": "44833.2997596893"
            },
            "miss_distance": {
                "astronomical": "0.4482279819",
                "lunar": "174.3606849591",
                "kilometers": "67053951.366638553",
                "miles": "41665393.3292679114"
            },
            "orbiting_body": "Earth"
        }
    ],
    "orbital_data": {
        "orbit_id": "4",
        "orbit_determination_date": "2020-08-20 07:00:26",
        "first_observation_date": "2020-08-14",
        "last_observation_date": "2020-08-19",
        "data_arc_in_days": 5,
        "observations_used": 39,
        "orbit_uncertainty": "8",
        "minimum_orbit_intersection": ".0599324",
        "jupiter_tisserand_invariant": "5.051",
        "epoch_osculation": "2459076.5",
        "eccentricity": ".1613718498632397",
        "semi_major_axis": "1.243035565988051",
        "inclination": "26.2542569761024",
        "ascending_node_longitude": "320.0830543466342",
        "orbital_period": "506.2018864304571",
        "perihelion_distance": "1.04244461725876",
        "perihelion_argument": "38.05376046481992",
        "aphelion_distance": "1.443626514717342",
        "perihelion_time": "2459112.487059524289",
        "mean_anomaly": "334.4067697572204",
        "mean_motion": ".7111787009301425",
        "equinox": "J2000",
        "orbit_class": {
            "orbit_class_type": "AMO",
            "orbit_class_description": "Near-Earth asteroid orbits similar to that of 1221 Amor",
            "orbit_class_range": "1.017 AU < q (perihelion) < 1.3 AU"
        }
    },
    "is_sentry_object": false
}